[{"OBJECT_NAME":"LYNK TOWER 5","OBJECT_ID":"2024-043Z","EPOCH":"2026-03-09T22:11:51.175104","MEAN_MOTION":15.29454506,"ECCENTRICITY":0.00104056,"INCLINATION":97.5458,"RA_OF_ASC_NODE":204.7305,"ARG_OF_PERICENTER":234.6422,"MEAN_ANOMALY":125.3846,"EPHEMERIS_TYPE":0,"CLASSIFICATION_TYPE":"U","NORAD_CAT_ID":59121,"ELEMENT_SET_NO":999,"REV_AT_EPOCH":11186,"BSTAR":0.00031901545,"MEAN_MOTION_DOT":9.048e-5,"MEAN_MOTION_DDOT":0},{"OBJECT_NAME":"STARLINK-33612","OBJECT_ID":"2025-057U","EPOCH":"2026-03-09T22:45:21.704832","MEAN_MOTION":15.27619291,"ECCENTRICITY":0.00014735,"INCLINATION":43.0053,"RA_OF_ASC_NODE":29.6754,"ARG_OF_PERICENTER":249.2291,"MEAN_ANOMALY":110.8403,"EPHEMERIS_TYPE":0,"CLASSIFICATION_TYPE":"U","NORAD_CAT_ID":63325,"ELEMENT_SET_NO":999,"REV_AT_EPOCH":5581,"BSTAR":0.0022596438,"MEAN_MOTION_DOT":0.00062522,"MEAN_MOTION_DDOT":0}]
